{
  "type": "FeatureCollection",
  "features": [
    {
      "type": "Feature",
      "properties": {
        "norad_id": 41866,
        "name": "GOES 16",
        "group": "weather",
        "lat": -0.010730933637483772,
        "lon": -92.18112556573709,
        "alt_km": 35773.16704623585,
        "timestamp": "2025-12-20T18:51:31.360845+00:00",
        "meta_object_name": "GOES 16",
        "meta_object_id": "2016-071A",
        "meta_epoch": "2025-12-20T11:12:35.083008",
        "meta_mean_motion": 1.00272153,
        "meta_eccentricity": 0.00030268,
        "meta_inclination": 0.0747,
        "meta_ra_of_asc_node": 102.2708,
        "meta_arg_of_pericenter": 163.1821,
        "meta_mean_anomaly": 247.3246,
        "meta_ephemeris_type": 0,
        "meta_classification_type": "U",
        "meta_norad_cat_id": 41866,
        "meta_element_set_no": 999,
        "meta_rev_at_epoch": 3331,
        "meta_bstar": 0,
        "meta_mean_motion_dot": -6.7e-07,
        "meta_mean_motion_ddot": 0,
        "tle_line1": "1 41866U 16071A   25354.46707272 -.00000067  00000+0  00000+0 0  9996",
        "tle_line2": "2 41866   0.0747 102.2708 0003026 163.1821 247.3246  1.00272153 33317"
      },
      "geometry": {
        "type": "Point",
        "coordinates": [
          -92.18112556573709,
          -0.010730933637483772
        ]
      }
    },
    {
      "type": "Feature",
      "properties": {
        "norad_id": 41882,
        "name": "FENGYUN 4A",
        "group": "weather",
        "lat": 1.5284220064683776,
        "lon": 136.14605002515125,
        "alt_km": 35787.311485808685,
        "timestamp": "2025-12-20T18:51:31.360857+00:00",
        "meta_object_name": "FENGYUN 4A",
        "meta_object_id": "2016-077A",
        "meta_epoch": "2025-12-19T13:51:06.687072",
        "meta_mean_motion": 1.00266581,
        "meta_eccentricity": 0.0004506,
        "meta_inclination": 1.866,
        "meta_ra_of_asc_node": 82.3247,
        "meta_arg_of_pericenter": 142.8816,
        "meta_mean_anomaly": 194.7423,
        "meta_ephemeris_type": 0,
        "meta_classification_type": "U",
        "meta_norad_cat_id": 41882,
        "meta_element_set_no": 999,
        "meta_rev_at_epoch": 3312,
        "meta_bstar": 0,
        "meta_mean_motion_dot": -3.34e-06,
        "meta_mean_motion_ddot": 0,
        "tle_line1": "1 41882U 16077A   25353.57716073 -.00000334  00000+0  00000+0 0  9997",
        "tle_line2": "2 41882   1.8660  82.3247 0004506 142.8816 194.7423  1.00266581 33125"
      },
      "geometry": {
        "type": "Point",
        "coordinates": [
          136.14605002515125,
          1.5284220064683776
        ]
      }
    },
    {
      "type": "Feature",
      "properties": {
        "norad_id": 41884,
        "name": "CYGFM05",
        "group": "weather",
        "lat": -34.938615343965864,
        "lon": -94.6133090611319,
        "alt_km": 417.9016383466296,
        "timestamp": "2025-12-20T18:51:31.360869+00:00",
        "meta_object_name": "CYGFM05",
        "meta_object_id": "2016-078A",
        "meta_epoch": "2025-12-20T09:57:19.872576",
        "meta_mean_motion": 15.47904275,
        "meta_eccentricity": 0.00107959,
        "meta_inclination": 34.9606,
        "meta_ra_of_asc_node": 356.9859,
        "meta_arg_of_pericenter": 250.6925,
        "meta_mean_anomaly": 109.2629,
        "meta_ephemeris_type": 0,
        "meta_classification_type": "U",
        "meta_norad_cat_id": 41884,
        "meta_element_set_no": 999,
        "meta_rev_at_epoch": 50095,
        "meta_bstar": 0.00028174579,
        "meta_mean_motion_dot": 0.00015144,
        "meta_mean_motion_ddot": 0,
        "tle_line1": "1 41884U 16078A   25354.41481334  .00015144  00000+0  28175-3 0  9994",
        "tle_line2": "2 41884  34.9606 356.9859 0010795 250.6925 109.2629 15.47904275500953"
      },
      "geometry": {
        "type": "Point",
        "coordinates": [
          -94.6133090611319,
          -34.938615343965864
        ]
      }
    },
    {
      "type": "Feature",
      "properties": {
        "norad_id": 41885,
        "name": "CYGFM04",
        "group": "weather",
        "lat": -25.913615964350598,
        "lon": -166.78494149466266,
        "alt_km": 411.9876864708085,
        "timestamp": "2025-12-20T18:51:31.360881+00:00",
        "meta_object_name": "CYGFM04",
        "meta_object_id": "2016-078B",
        "meta_epoch": "2025-12-20T08:36:05.783328",
        "meta_mean_motion": 15.50664937,
        "meta_eccentricity": 0.00097019,
        "meta_inclination": 34.9357,
        "meta_ra_of_asc_node": 331.9095,
        "meta_arg_of_pericenter": 275.107,
        "meta_mean_anomaly": 84.8545,
        "meta_ephemeris_type": 0,
        "meta_classification_type": "U",
        "meta_norad_cat_id": 41885,
        "meta_element_set_no": 999,
        "meta_rev_at_epoch": 50112,
        "meta_bstar": 0.00030127254,
        "meta_mean_motion_dot": 0.0001786,
        "meta_mean_motion_ddot": 0,
        "tle_line1": "1 41885U 16078B   25354.35840027  .00017860  00000+0  30127-3 0  9993",
        "tle_line2": "2 41885  34.9357 331.9095 0009701 275.1070  84.8545 15.50664937501127"
      },
      "geometry": {
        "type": "Point",
        "coordinates": [
          -166.78494149466266,
          -25.913615964350598
        ]
      }
    },
    {
      "type": "Feature",
      "properties": {
        "norad_id": 41886,
        "name": "CYGFM02",
        "group": "weather",
        "lat": -33.86261702669994,
        "lon": -106.61761447273636,
        "alt_km": 404.9851385713164,
        "timestamp": "2025-12-20T18:51:31.360892+00:00",
        "meta_object_name": "CYGFM02",
        "meta_object_id": "2016-078C",
        "meta_epoch": "2025-12-20T08:22:53.365728",
        "meta_mean_motion": 15.52066402,
        "meta_eccentricity": 0.00113856,
        "meta_inclination": 34.9446,
        "meta_ra_of_asc_node": 330.1965,
        "meta_arg_of_pericenter": 275.5269,
        "meta_mean_anomaly": 84.4156,
        "meta_ephemeris_type": 0,
        "meta_classification_type": "U",
        "meta_norad_cat_id": 41886,
        "meta_element_set_no": 999,
        "meta_rev_at_epoch": 50125,
        "meta_bstar": 0.00030781322,
        "meta_mean_motion_dot": 0.00019209,
        "meta_mean_motion_ddot": 0,
        "tle_line1": "1 41886U 16078C   25354.34922877  .00019209  00000+0  30781-3 0  9992",
        "tle_line2": "2 41886  34.9446 330.1965 0011385 275.5269  84.4156 15.52066402501252"
      },
      "geometry": {
        "type": "Point",
        "coordinates": [
          -106.61761447273636,
          -33.86261702669994
        ]
      }
    },
    {
      "type": "Feature",
      "properties": {
        "norad_id": 41887,
        "name": "CYGFM01",
        "group": "weather",
        "lat": -15.62813758863126,
        "lon": -26.76316514557471,
        "alt_km": 421.15530637714255,
        "timestamp": "2025-12-20T18:51:31.360903+00:00",
        "meta_object_name": "CYGFM01",
        "meta_object_id": "2016-078D",
        "meta_epoch": "2025-12-20T05:03:14.113728",
        "meta_mean_motion": 15.48485251,
        "meta_eccentricity": 0.0010463,
        "meta_inclination": 34.9437,
        "meta_ra_of_asc_node": 0.6169,
        "meta_arg_of_pericenter": 241.4971,
        "meta_mean_anomaly": 118.4697,
        "meta_ephemeris_type": 0,
        "meta_classification_type": "U",
        "meta_norad_cat_id": 41887,
        "meta_element_set_no": 999,
        "meta_rev_at_epoch": 50086,
        "meta_bstar": 0.00028199,
        "meta_mean_motion_dot": 0.00015469,
        "meta_mean_motion_ddot": 0,
        "tle_line1": "1 41887U 16078D   25354.21058002  .00015469  00000+0  28199-3 0  9993",
        "tle_line2": "2 41887  34.9437   0.6169 0010463 241.4971 118.4697 15.48485251500862"
      },
      "geometry": {
        "type": "Point",
        "coordinates": [
          -26.76316514557471,
          -15.62813758863126
        ]
      }
    },
    {
      "type": "Feature",
      "properties": {
        "norad_id": 41888,
        "name": "CYGFM08",
        "group": "weather",
        "lat": 28.209214250800635,
        "lon": 29.93740219060579,
        "alt_km": 418.91844753497753,
        "timestamp": "2025-12-20T18:51:31.360914+00:00",
        "meta_object_name": "CYGFM08",
        "meta_object_id": "2016-078E",
        "meta_epoch": "2025-12-20T09:20:35.850048",
        "meta_mean_motion": 15.49716188,
        "meta_eccentricity": 0.00119728,
        "meta_inclination": 34.9468,
        "meta_ra_of_asc_node": 342.3498,
        "meta_arg_of_pericenter": 265.5444,
        "meta_mean_anomaly": 94.391,
        "meta_ephemeris_type": 0,
        "meta_classification_type": "U",
        "meta_norad_cat_id": 41888,
        "meta_element_set_no": 999,
        "meta_rev_at_epoch": 50112,
        "meta_bstar": 0.00029221283,
        "meta_mean_motion_dot": 0.00016759,
        "meta_mean_motion_ddot": 0,
        "tle_line1": "1 41888U 16078E   25354.38930382  .00016759  00000+0  29221-3 0  9992",
        "tle_line2": "2 41888  34.9468 342.3498 0011972 265.5444  94.3910 15.49716188501123"
      },
      "geometry": {
        "type": "Point",
        "coordinates": [
          29.93740219060579,
          28.209214250800635
        ]
      }
    }
  ]
}